EUTELSAT 9B             
1 41310U 16005A   26065.22675522  .00000056  00000+0  00000+0 0  9990
2 41310   0.0298  63.1383 0004467 262.1710 289.2592  1.00270278 37086
EUTELSAT 65 WEST A      
1 41382U 16014A   26065.28343546 -.00000281  00000+0  00000+0 0  9994
2 41382   0.0742  43.9548 0002199 301.0527 215.8387  1.00271803 36505
EUTELSAT 117 WEST B     
1 41589U 16038B   26064.98792982 -.00000018  00000+0  00000+0 0  9995
2 41589   0.0104 328.8615 0000350 267.7539 165.7653  1.00273781 35622
EUTELSAT 172B           
1 42741U 17029B   26065.25908203 -.00000011  00000+0  00000+0 0  9996
2 42741   0.0215 149.3377 0000070 237.4333  42.4604  1.00272690 32703
EUTELSAT 7C             
1 44334U 19034B   26065.22640855  .00000043  00000+0  00000+0 0  9991
2 44334   0.0718 180.9870 0003230 153.0136 278.4156  1.00270211  5806
EUTELSAT 5 WEST B       
1 44624U 19067A   26065.22398187 -.00000047  00000+0  00000+0 0  9992
2 44624   0.0915 312.4399 0003214  43.6437 243.4680  1.00273024 23400
EUTELSAT KONNECT        
1 45027U 20005B   26065.22640855  .00000044  00000+0  00000+0 0  9992
2 45027   0.0680  97.6779 0001063 229.0353 285.9253  1.00271424 23306
EUTELSAT QUANTUM        
1 49056U 21069B   26064.44991411  .00000118  00000+0  00000+0 0  9991
2 49056   0.0432 315.3835 0002891  26.0728  31.3837  1.00272758 16888
EUTELSAT KONNECT VHTS   
1 53765U 22110A   26064.79770901  .00000010  00000+0  00000+0 0  9999
2 53765   0.0580 103.5481 0003315 222.3950 127.4443  1.00271589  5797
EUTELSAT HOTBIRD 13F    
1 54048U 22134A   26065.22762189  .00000082  00000+0  00000+0 0  9997
2 54048   0.0554 297.4760 0002089  66.1759 255.2262  1.00272590 12345
EUTELSAT HOTBIRD 13G    
1 54225U 22146A   26065.22762189  .00000082  00000+0  00000+0 0  9997
2 54225   0.0448 226.9997 0001923 310.9978  80.8849  1.00272265  6437
EUTELSAT 10B            
1 54259U 22157A   26064.79909567  .00000062  00000+0  00000+0 0  9998
2 54259   0.0578 102.8111 0001354 340.6012  17.7426  1.00272542 11990
EUTELSAT 36D            
1 59346U 24059A   26065.23239332  .00000151  00000+0  00000+0 0  9998
2 59346   0.0115 145.2938 0000220 232.5369 265.6266  1.00271113  7110
