[{"OBJECT_NAME":"EUTELSAT 9B","OBJECT_ID":"2016-005A","EPOCH":"2026-03-06T05:26:31.651008","MEAN_MOTION":1.00270278,"ECCENTRICITY":0.00044672,"INCLINATION":0.0298,"RA_OF_ASC_NODE":63.1383,"ARG_OF_PERICENTER":262.171,"MEAN_ANOMALY":289.2592,"EPHEMERIS_TYPE":0,"CLASSIFICATION_TYPE":"U","NORAD_CAT_ID":41310,"ELEMENT_SET_NO":999,"REV_AT_EPOCH":3708,"BSTAR":0,"MEAN_MOTION_DOT":5.6e-7,"MEAN_MOTION_DDOT":0},{"OBJECT_NAME":"EUTELSAT 65 WEST A","OBJECT_ID":"2016-014A","EPOCH":"2026-03-06T06:48:08.823744","MEAN_MOTION":1.00271803,"ECCENTRICITY":0.00021994,"INCLINATION":0.0742,"RA_OF_ASC_NODE":43.9548,"ARG_OF_PERICENTER":301.0527,"MEAN_ANOMALY":215.8387,"EPHEMERIS_TYPE":0,"CLASSIFICATION_TYPE":"U","NORAD_CAT_ID":41382,"ELEMENT_SET_NO":999,"REV_AT_EPOCH":3650,"BSTAR":0,"MEAN_MOTION_DOT":-2.81e-6,"MEAN_MOTION_DDOT":0},{"OBJECT_NAME":"EUTELSAT 117 WEST B","OBJECT_ID":"2016-038B","EPOCH":"2026-03-05T23:42:37.136448","MEAN_MOTION":1.00273781,"ECCENTRICITY":3.503e-5,"INCLINATION":0.0104,"RA_OF_ASC_NODE":328.8615,"ARG_OF_PERICENTER":267.7539,"MEAN_ANOMALY":165.7653,"EPHEMERIS_TYPE":0,"CLASSIFICATION_TYPE":"U","NORAD_CAT_ID":41589,"ELEMENT_SET_NO":999,"REV_AT_EPOCH":3562,"BSTAR":0,"MEAN_MOTION_DOT":-1.8e-7,"MEAN_MOTION_DDOT":0},{"OBJECT_NAME":"EUTELSAT 172B","OBJECT_ID":"2017-029B","EPOCH":"2026-03-06T06:13:04.687392","MEAN_MOTION":1.0027269,"ECCENTRICITY":7.09e-6,"INCLINATION":0.0215,"RA_OF_ASC_NODE":149.3377,"ARG_OF_PERICENTER":237.4333,"MEAN_ANOMALY":42.4604,"EPHEMERIS_TYPE":0,"CLASSIFICATION_TYPE":"U","NORAD_CAT_ID":42741,"ELEMENT_SET_NO":999,"REV_AT_EPOCH":3270,"BSTAR":0,"MEAN_MOTION_DOT":-1.1e-7,"MEAN_MOTION_DDOT":0},{"OBJECT_NAME":"EUTELSAT 7C","OBJECT_ID":"2019-034B","EPOCH":"2026-03-06T05:26:01.698720","MEAN_MOTION":1.00270211,"ECCENTRICITY":0.00032301,"INCLINATION":0.0718,"RA_OF_ASC_NODE":180.987,"ARG_OF_PERICENTER":153.0136,"MEAN_ANOMALY":278.4156,"EPHEMERIS_TYPE":0,"CLASSIFICATION_TYPE":"U","NORAD_CAT_ID":44334,"ELEMENT_SET_NO":999,"REV_AT_EPOCH":580,"BSTAR":0,"MEAN_MOTION_DOT":4.3e-7,"MEAN_MOTION_DDOT":0},{"OBJECT_NAME":"EUTELSAT 5 WEST B","OBJECT_ID":"2019-067A","EPOCH":"2026-03-06T05:22:32.033568","MEAN_MOTION":1.00273024,"ECCENTRICITY":0.00032148,"INCLINATION":0.0915,"RA_OF_ASC_NODE":312.4399,"ARG_OF_PERICENTER":43.6437,"MEAN_ANOMALY":243.468,"EPHEMERIS_TYPE":0,"CLASSIFICATION_TYPE":"U","NORAD_CAT_ID":44624,"ELEMENT_SET_NO":999,"REV_AT_EPOCH":2340,"BSTAR":0,"MEAN_MOTION_DOT":-4.7e-7,"MEAN_MOTION_DDOT":0},{"OBJECT_NAME":"EUTELSAT KONNECT","OBJECT_ID":"2020-005B","EPOCH":"2026-03-06T05:26:01.698720","MEAN_MOTION":1.00271424,"ECCENTRICITY":0.00010639,"INCLINATION":0.068,"RA_OF_ASC_NODE":97.6779,"ARG_OF_PERICENTER":229.0353,"MEAN_ANOMALY":285.9253,"EPHEMERIS_TYPE":0,"CLASSIFICATION_TYPE":"U","NORAD_CAT_ID":45027,"ELEMENT_SET_NO":999,"REV_AT_EPOCH":2330,"BSTAR":0,"MEAN_MOTION_DOT":4.4e-7,"MEAN_MOTION_DDOT":0},{"OBJECT_NAME":"EUTELSAT QUANTUM","OBJECT_ID":"2021-069B","EPOCH":"2026-03-05T10:47:52.579104","MEAN_MOTION":1.00272758,"ECCENTRICITY":0.0002891,"INCLINATION":0.0432,"RA_OF_ASC_NODE":315.3835,"ARG_OF_PERICENTER":26.0728,"MEAN_ANOMALY":31.3837,"EPHEMERIS_TYPE":0,"CLASSIFICATION_TYPE":"U","NORAD_CAT_ID":49056,"ELEMENT_SET_NO":999,"REV_AT_EPOCH":1688,"BSTAR":0,"MEAN_MOTION_DOT":1.18e-6,"MEAN_MOTION_DDOT":0},{"OBJECT_NAME":"EUTELSAT KONNECT VHTS","OBJECT_ID":"2022-110A","EPOCH":"2026-03-05T19:08:42.058464","MEAN_MOTION":1.00271589,"ECCENTRICITY":0.00033156,"INCLINATION":0.058,"RA_OF_ASC_NODE":103.5481,"ARG_OF_PERICENTER":222.395,"MEAN_ANOMALY":127.4443,"EPHEMERIS_TYPE":0,"CLASSIFICATION_TYPE":"U","NORAD_CAT_ID":53765,"ELEMENT_SET_NO":999,"REV_AT_EPOCH":579,"BSTAR":0,"MEAN_MOTION_DOT":1.0e-7,"MEAN_MOTION_DDOT":0},{"OBJECT_NAME":"EUTELSAT HOTBIRD 13F","OBJECT_ID":"2022-134A","EPOCH":"2026-03-06T05:27:46.531296","MEAN_MOTION":1.0027259,"ECCENTRICITY":0.0002089,"INCLINATION":0.0554,"RA_OF_ASC_NODE":297.476,"ARG_OF_PERICENTER":66.1759,"MEAN_ANOMALY":255.2262,"EPHEMERIS_TYPE":0,"CLASSIFICATION_TYPE":"U","NORAD_CAT_ID":54048,"ELEMENT_SET_NO":999,"REV_AT_EPOCH":1234,"BSTAR":0,"MEAN_MOTION_DOT":8.2e-7,"MEAN_MOTION_DDOT":0},{"OBJECT_NAME":"EUTELSAT HOTBIRD 13G","OBJECT_ID":"2022-146A","EPOCH":"2026-03-06T05:27:46.531296","MEAN_MOTION":1.00272265,"ECCENTRICITY":0.00019239,"INCLINATION":0.0448,"RA_OF_ASC_NODE":226.9997,"ARG_OF_PERICENTER":310.9978,"MEAN_ANOMALY":80.8849,"EPHEMERIS_TYPE":0,"CLASSIFICATION_TYPE":"U","NORAD_CAT_ID":54225,"ELEMENT_SET_NO":999,"REV_AT_EPOCH":643,"BSTAR":0,"MEAN_MOTION_DOT":8.2e-7,"MEAN_MOTION_DDOT":0},{"OBJECT_NAME":"EUTELSAT 10B","OBJECT_ID":"2022-157A","EPOCH":"2026-03-05T19:10:41.865888","MEAN_MOTION":1.00272542,"ECCENTRICITY":0.00013544,"INCLINATION":0.0578,"RA_OF_ASC_NODE":102.8111,"ARG_OF_PERICENTER":340.6012,"MEAN_ANOMALY":17.7426,"EPHEMERIS_TYPE":0,"CLASSIFICATION_TYPE":"U","NORAD_CAT_ID":54259,"ELEMENT_SET_NO":999,"REV_AT_EPOCH":1199,"BSTAR":0,"MEAN_MOTION_DOT":6.2e-7,"MEAN_MOTION_DDOT":0},{"OBJECT_NAME":"EUTELSAT 36D","OBJECT_ID":"2024-059A","EPOCH":"2026-03-06T05:34:38.782848","MEAN_MOTION":1.00271113,"ECCENTRICITY":2.201e-5,"INCLINATION":0.0115,"RA_OF_ASC_NODE":145.2938,"ARG_OF_PERICENTER":232.5369,"MEAN_ANOMALY":265.6266,"EPHEMERIS_TYPE":0,"CLASSIFICATION_TYPE":"U","NORAD_CAT_ID":59346,"ELEMENT_SET_NO":999,"REV_AT_EPOCH":711,"BSTAR":0,"MEAN_MOTION_DOT":1.51e-6,"MEAN_MOTION_DDOT":0}]
